GSAT0101 (PRN E11)      
1 37846U 11060A   21143.17160466 -.00000080  00000-0  00000-0 0  9997
2 37846  56.8248  31.9718 0003935  15.1576 344.8939  1.70475142 59563
GSAT0102 (PRN E12)      
1 37847U 11060B   21143.97410603 -.00000082  00000-0  00000-0 0  9999
2 37847  56.8260  31.9493 0004319 346.1005 192.7302  1.70475339 59583
GSAT0103 (PRN E19)      
1 38857U 12055A   21143.21286852  .00000098  00000-0  00000-0 0  9996
2 38857  55.0410 152.4311 0005288 269.8231  90.1602  1.70473684 53454
GSAT0104 (PRN E20)      
1 38858U 12055B   21143.18366378  .00000098  00000-0  00000-0 0  9995
2 38858  55.0409 152.4333 0002929 272.5746  87.4359  1.70474002 53451
GSAT0201 (PRN E18)      
1 40128U 14050A   21144.05094160 -.00000085  00000-0  00000-0 0  9996
2 40128  50.4843 347.7941 1650203 110.5458 267.9324  1.85518592 43999
GSAT0202 (PRN E14)      
1 40129U 14050B   21144.31338055 -.00000086  00000-0  00000-0 0  9991
2 40129  50.5155 346.8321 1647470 111.3637 267.0147  1.85519245 46161
GSAT0203 (PRN E26)      
1 40544U 15017A   21144.12633900 -.00000082  00000-0  00000-0 0  9998
2 40544  56.6196  32.0323 0002038 283.2248  76.7940  1.70474338 37669
GSAT0204 (PRN E22)      
1 40545U 15017B   21142.03325175 -.00000078  00000-0  00000+0 0  9993
2 40545  56.6245  32.1006 0001369 262.0308  97.9913  1.70475468 38281
GSAT0205 (PRN E24)      
1 40889U 15045A   21143.56124146 -.00000030  00000-0  00000+0 0  9997
2 40889  55.8940 272.7267 0003961  22.5357 337.4527  1.70475475 35467
GSAT0206 (PRN E30)      
1 40890U 15045B   21144.36730683 -.00000032  00000-0  00000-0 0  9990
2 40890  55.8926 272.7008 0002156  16.0328 343.9445  1.70475532 35507
GSAT0209 (PRN E09)      
1 41174U 15079A   21139.84898731  .00000090  00000-0  00000-0 0  9992
2 41174  55.0551 152.2240 0005794 303.1736  56.8108  1.70473397 33166
GSAT0208 (PRN E08)      
1 41175U 15079B   21143.58817809  .00000097  00000-0  00000-0 0  9993
2 41175  55.0550 152.1201 0005007 302.3859  57.6076  1.70473418 33646
GSAT0211 (PRN E02)      
1 41549U 16030A   21140.18964700 -.00000013  00000-0  00000-0 0  9991
2 41549  56.0401 272.7076 0002703 330.9728  28.9948  1.70475237 31062
GSAT0210 (PRN E01)      
1 41550U 16030B   21142.82876597 -.00000027  00000-0  00000-0 0  9997
2 41550  56.0372 272.6367 0002006 281.8980  78.0524  1.70475337 31105
GSAT0207 (PRN E07)      
1 41859U 16069A   21144.24772300  .00000093  00000-0  00000-0 0  9998
2 41859  54.7153 152.3806 0005896 292.7516  67.2254  1.70473287 27867
GSAT0212 (PRN E03)      
1 41860U 16069B   21144.10114797  .00000094  00000-0  00000-0 0  9996
2 41860  54.7134 152.3831 0004576 308.3889  51.6101  1.70473284 28111
GSAT0213 (PRN E04)      
1 41861U 16069C   21143.88023877  .00000095  00000-0  00000-0 0  9990
2 41861  54.7152 152.3937 0005388 276.1957  83.7842  1.70473381 27978
GSAT0214 (PRN E05)      
1 41862U 16069D   21142.85410296  .00000098  00000-0  00000-0 0  9995
2 41862  54.7132 152.4172 0004526 280.2982  79.6955  1.70473375 28081
GSAT0215 (PRN E21)      
1 43055U 17079A   21144.51799616 -.00000032  00000-0  00000-0 0  9993
2 43055  56.0121 272.4271 0001459 270.7107  89.2434  1.70474465 21452
GSAT0216 (PRN E25)      
1 43056U 17079B   21141.29102306 -.00000019  00000-0  00000-0 0  9995
2 43056  56.0135 272.5153 0003212 275.3368  84.6054  1.70474597 21416
GSAT0217 (PRN E27)      
1 43057U 17079C   21143.27089071 -.00000029  00000-0  00000-0 0  9990
2 43057  56.0086 272.4613 0002857 292.4422  67.4994  1.70474487 21439
GSAT0218 (PRN E31)      
1 43058U 17079D   21144.07747754 -.00000031  00000-0  00000-0 0  9992
2 43058  56.0107 272.4364 0003719 269.6910  90.2371  1.70474503 21479
GSAT0221 (PRN E15)      
1 43564U 18060A   21143.97615569 -.00000081  00000-0  00000-0 0  9996
2 43564  57.0045  31.7521 0003230 301.5850  58.4255  1.70475297 17621
GSAT0222 (PRN E33)      
1 43565U 18060B   21144.19599940 -.00000082  00000-0  00000-0 0  9997
2 43565  57.0068  31.7460 0003238 313.9278  46.0881  1.70475322 17670
GSAT0219 (PRN E36)      
1 43566U 18060C   21143.24340318 -.00000080  00000-0  00000+0 0  9993
2 43566  57.0073  31.7738 0003031 317.8841  42.1330  1.70475340 17637
GSAT0220 (PRN E13)      
1 43567U 18060D   21144.04980871 -.00000081  00000-0  00000-0 0  9999
2 43567  57.0069  31.7525 0002906 310.8882  49.1289  1.70475019 17638
